GLOBALSTAR M069         
1 31573U 07020C   26158.62179558 -.00000067  00000+0  23762-3 0  9999
2 31573  52.0043 279.2001 0002526 128.3228 245.2231 12.23470931877639
GLOBALSTAR M072         
1 31574U 07020D   26159.08065384 -.00000069  00000+0  20806-3 0  9990
2 31574  51.9909 124.4888 0001373 306.8467 133.3638 11.91658483873896
GLOBALSTAR M066         
1 32265U 07048C   26158.98196376 -.00000119  00000+0 -21078-3 0  9991
2 32265  51.9587  84.3367 0005314  24.4172  56.6252 12.30388743859095
GLOBALSTAR M079         
1 37188U 10054A   26159.11315969 -.00000092  00000+0  63574-4 0  9995
2 37188  52.0016 136.2918 0000488   0.5369  78.3475 12.62265970721404
GLOBALSTAR M074         
1 37189U 10054B   26159.20423486 -.00000097  00000+0  38127-4 0  9991
2 37189  51.9993 135.2810 0000343  45.3805 327.7188 12.62268412722024
GLOBALSTAR M076         
1 37190U 10054C   26159.16698146 -.00000096  00000+0  42206-4 0  9997
2 37190  52.0006 135.5964 0000537  31.8909  52.1301 12.62261824721739
GLOBALSTAR M077         
1 37191U 10054D   26158.90242632 -.00000081  00000+0 -59370-4 0  9999
2 37191  51.9933 202.8631 0002881 155.8900  14.9562 11.67547620720052
GLOBALSTAR M075         
1 37192U 10054E   26158.80372235 -.00000107  00000+0 -18387-4 0  9994
2 37192  51.9921 178.7641 0000063 156.1139  16.1029 12.62267315720755
GLOBALSTAR M073         
1 37193U 10054F   26158.56614507 -.00000092  00000+0  64891-4 0  9992
2 37193  52.0058  93.5780 0000731  28.4102 142.3845 12.62262154722712
GLOBALSTAR M083         
1 37739U 11033A   26158.94055406 -.00000101  00000+0  13845-4 0  9999
2 37739  51.9872  40.6801 0000827  54.4926 319.9022 12.62262882691785
GLOBALSTAR M088         
1 37740U 11033B   26159.18672167 -.00000087  00000+0  92801-4 0  9999
2 37740  52.0229 306.3380 0000843 112.7304  59.0579 12.62268578687350
GLOBALSTAR M091         
1 37741U 11033C   26159.04137750 -.00000090  00000+0  75069-4 0  9990
2 37741  52.0005 269.7587 0000519 136.2229  35.8694 12.62263720688121
GLOBALSTAR M085         
1 37742U 11033D   26158.94861858 -.00000096  00000+0  42446-4 0  9991
2 37742  52.0112 221.3257 0000203 179.4908 350.9855 12.62263933688623
GLOBALSTAR M081         
1 37743U 11033E   26158.89607541 -.00000099  00000+0  24295-4 0  9998
2 37743  51.9944 223.9326 0000261 129.5850  41.5895 12.62264801688763
GLOBALSTAR M089         
1 37744U 11033F   26158.77708119 -.00000095  00000+0  47543-4 0  9996
2 37744  51.9904 178.4550 0000375 103.4413  67.5335 12.62266990689595
GLOBALSTAR M084         
1 38040U 11080A   26158.99328367 -.00000094  00000+0  55087-4 0  9996
2 38040  52.0025  45.2714 0001019  71.9918 301.8684 12.62267522667600
GLOBALSTAR M080         
1 38041U 11080B   26158.96441372 -.00000101  00000+0  13976-4 0  9996
2 38041  52.0075  47.0741 0000278  67.7942 304.8050 12.62269216667727
GLOBALSTAR M082         
1 38042U 11080C   26158.85798610 -.00000091  00000+0  72851-4 0  9990
2 38042  52.0098   2.8982 0000541  85.6173  93.2689 12.62269896668415
GLOBALSTAR M092         
1 38043U 11080D   26159.11304529 -.00000093  00000+0  62523-4 0  9990
2 38043  52.0083  92.5176 0000530  51.0168 326.4525 12.62266835666902
GLOBALSTAR M090         
1 38044U 11080E   26158.84809887 -.00000090  00000+0  76868-4 0  9991
2 38044  52.0144 356.8814 0000801  79.5657 293.3025 12.62268990668537
GLOBALSTAR M086         
1 38045U 11080F   26158.87024013 -.00000084  00000+0  11167-3 0  9998
2 38045  51.9915 356.7591 0001628  51.2573 322.6250 12.62286550668487
GLOBALSTAR M097         
1 39072U 13005A   26159.05657374 -.00000083  00000+0  11824-3 0  9990
2 39072  52.0054 271.1305 0000467 121.7186 238.3726 12.62247228615752
GLOBALSTAR M093         
1 39073U 13005B   26158.55481666 -.00000086  00000+0  97186-4 0  9993
2 39073  52.0111 266.0008 0000337 107.5188 252.5716 12.62265685615642
GLOBALSTAR M094         
1 39074U 13005C   26158.79229211 -.00000098  00000+0  30602-4 0  9999
2 39074  51.9930 179.4045 0000176 329.7677  30.3179 12.62268543617283
GLOBALSTAR M096         
1 39075U 13005D   26158.88492686 -.00000098  00000+0  29689-4 0  9991
2 39075  52.0063 227.9171 0000208 158.8306 201.2570 12.62265365616213
GLOBALSTAR M078         
1 39076U 13005E   26158.69952859 -.00000137  00000+0 -18768-3 0  9994
2 39076  51.9894 312.5020 0000591 190.9080 169.1774 12.62259561614812
GLOBALSTAR M095         
1 39077U 13005F   26159.12222782 -.00000092  00000+0  63136-4 0  9998
2 39077  52.0095 308.8064 0000387 121.3808 238.7096 12.62263356614720
GLOBALSTAR M087         
1 52888U 22064A   26158.97714256 -.00000089  00000+0  83954-4 0  9998
2 52888  51.9995  90.4912 0000560  17.7567 342.3319 12.62268932189970
